[{"OBJECT_NAME":"SSTL S1-4","OBJECT_ID":"2018-071A","EPOCH":"2026-03-09T21:46:24.134592","MEAN_MOTION":14.9621182,"ECCENTRICITY":0.00016592,"INCLINATION":97.5174,"RA_OF_ASC_NODE":304.5632,"ARG_OF_PERICENTER":109.6935,"MEAN_ANOMALY":250.4466,"EPHEMERIS_TYPE":0,"CLASSIFICATION_TYPE":"U","NORAD_CAT_ID":43618,"ELEMENT_SET_NO":999,"REV_AT_EPOCH":40809,"BSTAR":0.00013252792,"MEAN_MOTION_DOT":1.44e-5,"MEAN_MOTION_DDOT":0},{"OBJECT_NAME":"STARLINK-36221","OBJECT_ID":"2025-304Z","EPOCH":"2026-03-09T16:54:19.604448","MEAN_MOTION":14.98316025,"ECCENTRICITY":0.00041576,"INCLINATION":70.0026,"RA_OF_ASC_NODE":174.5449,"ARG_OF_PERICENTER":274.6212,"MEAN_ANOMALY":85.4472,"EPHEMERIS_TYPE":0,"CLASSIFICATION_TYPE":"U","NORAD_CAT_ID":67215,"ELEMENT_SET_NO":999,"REV_AT_EPOCH":1388,"BSTAR":-0.00041268394,"MEAN_MOTION_DOT":-5.012e-5,"MEAN_MOTION_DDOT":0}]
